KUIPER-00074            
1 64821U 25151F   25214.51518016  .00025806  00000+0  74329-3 0  9994
2 64821  51.8773 204.4610 0005332 207.4550 152.6155 15.35566946  2644
KUIPER-00075            
1 64822U 25151G   25214.44925586  .00021519  00000+0  62125-3 0  9999
2 64822  51.8783 204.7769 0004901 199.3439 160.7362 15.35605664  2630
KUIPER-00076            
1 64823U 25151H   25214.58134747  .00023166  00000+0  67145-3 0  9993
2 64823  51.8772 204.1544 0004989 208.1099 151.9618 15.35435001  2655
KUIPER-00077            
1 64824U 25151J   25214.58333450  .00019346  00000+0  56570-3 0  9991
2 64824  51.8784 204.1745 0005576 214.6350 145.4273 15.35271508  2652
KUIPER-00078            
1 64825U 25151K   25214.58296368  .00023352  00000+0  67937-3 0  9999
2 64825  51.8776 204.1682 0005790 217.2496 142.8089 15.35309497  2657
KUIPER-00079            
1 64826U 25151L   25214.51087537  .00023154  00000+0  65992-3 0  9998
2 64826  51.8782 204.4372 0005969 193.0685 167.0147 15.35958062  3847
KUIPER-00080            
1 64827U 25151M   25214.57916254  .00015081  00000+0  43820-3 0  9998
2 64827  51.8783 204.1468 0004929 203.1041 156.9724 15.35666110  2652
KUIPER-00082            
1 64828U 25151N   25214.57797063  .00014282  00000+0  41426-3 0  9996
2 64828  51.8778 204.1344 0005321 198.8142 161.2648 15.35765348  2656
KUIPER-00083            
1 64829U 25151P   25214.45192894  .00023495  00000+0  68275-3 0  9992
2 64829  51.8771 204.7868 0005152 206.6649 153.4072 15.35345098  3829
KUIPER-00084            
1 64830U 25151Q   25214.58334491 -.00028390  00000+0 -96325-3 0  9997
2 64830  51.8788 204.2774 0005589 210.1322  92.1269 15.29705817  2370
KUIPER-00085            
1 64831U 25151R   25214.57632496  .00015559  00000+0  44879-3 0  9991
2 64831  51.8780 204.1251 0005914 195.6873 164.3931 15.35864736  2654
KUIPER-00086            
1 64832U 25151S   25214.58373521  .00022027  00000+0  64371-3 0  9991
2 64832  51.8773 204.1717 0005547 218.1866 141.8727 15.35204848  2654
KUIPER-00087            
1 64833U 25151T   25214.44863722  .00021306  00000+0  61475-3 0  9995
2 64833  51.8781 204.7715 0005240 195.5495 164.5330 15.35628164  2635
KUIPER-00089            
1 64834U 25151U   25214.58204704  .00013902  00000+0  40918-3 0  9992
2 64834  51.8783 204.1656 0005553 216.1466 143.9145 15.35327907  2659
KUIPER-00090            
1 64835U 25151V   25214.58453722  .00022922  00000+0  67031-3 0  9996
2 64835  51.8780 204.1799 0005679 222.2206 137.8343 15.35159020  2655
KUIPER-00091            
1 64836U 25151W   25214.51188636  .00021504  00000+0  61616-3 0  9997
2 64836  51.8778 204.4414 0005788 194.6960 165.3858 15.35838016  2645
KUIPER-00092            
1 64837U 25151X   25214.44916513  .00021873  00000+0  63063-3 0  9990
2 64837  51.8773 204.7690 0005361 203.4048 156.6695 15.35635157  3849
KUIPER-00093            
1 64838U 25151Y   25214.58179506  .00024717  00000+0  71605-3 0  9990
2 64838  51.8785 204.1643 0005181 207.4069 152.6644 15.35410561  2650
KUIPER-00094            
1 64839U 25151Z   25214.51372860  .00025464  00000+0  73083-3 0  9994
2 64839  51.8775 204.4525 0005358 201.0202 159.0565 15.35687004  2647
